<?xml version="1.0" encoding="UTF-8"?>
<gpx version="1.1" creator="Pesca Barragem" xmlns="http://www.topografix.com/GPX/1/1" xmlns:osmand="https://osmand.net">
<metadata><name>Lagoa de Óbidos — pesca</name><desc>Spots por ordem, alvos de lançamento, zonas legais, rampas e bancos de areia | Actualizado a 2026-09-09 | https://j0hk3r1.github.io/Pesca-barragem/</desc><time>2026-09-09T00:00:00Z</time></metadata>
<wpt lat="39.40372" lon="-9.21098">
  <name>#1 · Ponta do Espichel — a ponta da língua de areia</name>
  <desc>#5 do ranking. A maior mancha de água aberta de toda a lagoa. Fica na ponta da língua de areia que sai do teu spot A — andas 177 m pela areia para fora e ficas com água funda dos dois lados. Parques na Ecopista e vais a pé.💧 92% de água que não seca num raio de 150 m · praticamente sem bancos🎯 Água logo a 11 m para NNE, sem banco pelo meio🚗 Estrada a 315 m · parque a 944 m⚖️ Zona de Utilização Livre · rampa mais próxima a 1132 m (limite: 100 m)📍 o teu spot A a 177 m · pesqueiro «Ponta do Espichel» a 17 m | Lançamento 11 m para NNE, sem banco pelo meio</desc>
  <type>Spots</type>
  <extensions><osmand:color>#27ae60</osmand:color><osmand:icon>special_marker</osmand:icon><osmand:background>circle</osmand:background></extensions>
</wpt>
<wpt lat="39.39529" lon="-9.21906">
  <name>#2 · Braço sudoeste — canal estreito com acesso de carro</name>
  <desc>#1 do ranking. Canal estreito, água escura encostada à margem dos dois lados. Há um caminho de terra que desce até à água e sítio para deixar o carro. É o tipo de sítio onde a corrente de maré fica concentrada.💧 65% de água que não seca num raio de 150 m · praticamente sem bancos🎯 Água logo a 11 m para ENE, sem banco pelo meio🚗 Estrada a 52 m · parque a 0 m⚖️ Zona de Utilização Livre · rampa mais próxima a 1005 m (limite: 100 m)📍 pesqueiro «Ponta Branca» a 6 m | Lançamento 11 m para ENE, sem banco pelo meio</desc>
  <type>Spots</type>
  <extensions><osmand:color>#27ae60</osmand:color><osmand:icon>special_marker</osmand:icon><osmand:background>circle</osmand:background></extensions>
</wpt>
<wpt lat="39.40364" lon="-9.20088">
  <name>#3 · Ponta da Ardonia — o mais perto do sítio das aves</name>
  <desc>#2 do ranking. Zona Livre, água limpa à frente. Fica a 1,3 km do sítio onde a Mariya vai ver aves — é o ponto legal mais próximo dela.💧 48% de água que não seca num raio de 150 m · praticamente sem bancos🎯 Água logo a 11 m para SO, sem banco pelo meio🚗 Estrada a 28 m · parque a 248 m⚖️ Zona de Utilização Livre · rampa mais próxima a 1845 m (limite: 100 m)📍 pesqueiro «Ponta da Ardonia» a 127 m | Lançamento 11 m para SO, sem banco pelo meio</desc>
  <type>Spots</type>
  <extensions><osmand:color>#27ae60</osmand:color><osmand:icon>special_marker</osmand:icon><osmand:background>circle</osmand:background></extensions>
</wpt>
<wpt lat="39.40895" lon="-9.20208">
  <name>#4 · Clube de Vela — o melhor para irem os dois</name>
  <desc>#4 do ranking. Parque de merendas a 176 m e margem limpa. Ela fica instalada com sombra e banco, tu pescas ao lado.💧 44% de água que não seca num raio de 150 m · praticamente sem bancos🎯 Água logo a 11 m para O, sem banco pelo meio🚗 Estrada a 53 m · parque a 137 m⚖️ Zona de Utilização Livre · rampa mais próxima a 1562 m (limite: 100 m)📍 parque de merendas a 176 m · pesqueiro «Clube de Vela da Lagoa» a 84 m | Lançamento 11 m para O, sem banco pelo meio</desc>
  <type>Spots</type>
  <extensions><osmand:color>#27ae60</osmand:color><osmand:icon>special_marker</osmand:icon><osmand:background>circle</osmand:background></extensions>
</wpt>
<wpt lat="39.39052" lon="-9.22436">
  <name>#5 · Extremo sul da lagoa</name>
  <desc>#3 do ranking. Ponta sul, isolado, estrada a 27 m. ⚠️ A rampa mais próxima está a 316 m — folgado, mas confirma no local.💧 48% de água que não seca num raio de 150 m · praticamente sem bancos🎯 Água logo a 11 m para E, sem banco pelo meio🚗 Estrada a 27 m · parque a 238 m⚖️ Zona de Utilização Livre · rampa mais próxima a 316 m (limite: 100 m) | Lançamento 11 m para E, sem banco pelo meio</desc>
  <type>Spots</type>
  <extensions><osmand:color>#27ae60</osmand:color><osmand:icon>special_marker</osmand:icon><osmand:background>circle</osmand:background></extensions>
</wpt>
<wpt lat="39.4031" lon="-9.21693">
  <name>#6 · Margem sul, 400 m a poente do spot A</name>
  <desc>#6 do ranking. Alternativa imediata se a ponta estiver ocupada. Estrada a 43 m.💧 48% de água que não seca num raio de 150 m · praticamente sem bancos🎯 Água logo a 11 m para E, sem banco pelo meio🚗 Estrada a 43 m · parque a 846 m⚖️ Zona de Utilização Livre · rampa mais próxima a 931 m (limite: 100 m) | Lançamento 11 m para E, sem banco pelo meio</desc>
  <type>Spots</type>
  <extensions><osmand:color>#27ae60</osmand:color><osmand:icon>special_marker</osmand:icon><osmand:background>circle</osmand:background></extensions>
</wpt>
<wpt lat="39.40771" lon="-9.21475">
  <name>#7 · Margem sul, 400 m a nascente do spot A</name>
  <desc>#7 do ranking. Outra alternativa próxima. ⚠️ Tem 4% de banco à frente — vê onde lanças.💧 43% de água que não seca num raio de 150 m · praticamente sem bancos🎯 Água logo a 11 m para N, sem banco pelo meio🚗 Estrada a 38 m · parque a 1162 m⚖️ Zona de Utilização Livre · rampa mais próxima a 591 m (limite: 100 m)📍 o teu spot A a 397 m · pesqueiro «Seixo» a 117 m | Lançamento 11 m para N, sem banco pelo meio</desc>
  <type>Spots</type>
  <extensions><osmand:color>#27ae60</osmand:color><osmand:icon>special_marker</osmand:icon><osmand:background>circle</osmand:background></extensions>
</wpt>
<wpt lat="39.39949" lon="-9.19839">
  <name>#8 · Margem nascente, junto ao parque de merendas do sul</name>
  <desc>#8 do ranking. Parque de merendas a 151 m e estrada a 58 m. Água mais rasa que os de cima.💧 29% de água que não seca num raio de 150 m · 7% de banco de areia🎯 Água logo a 11 m para OSO, sem banco pelo meio🚗 Estrada a 58 m · parque a 53 m⚖️ Zona de Utilização Livre · rampa mais próxima a 2267 m (limite: 100 m)📍 parque de merendas a 151 m | Lançamento 11 m para OSO, sem banco pelo meio</desc>
  <type>Spots</type>
  <extensions><osmand:color>#27ae60</osmand:color><osmand:icon>special_marker</osmand:icon><osmand:background>circle</osmand:background></extensions>
</wpt>
<wpt lat="39.3957" lon="-9.21128">
  <name>#9 · Braço sudoeste, margem norte</name>
  <desc>#12 do ranking. Mesmo canal do #1, do outro lado. ⚠️ Estrada a 330 m — dá caminhada.💧 45% de água que não seca num raio de 150 m · praticamente sem bancos🎯 Água logo a 11 m para N, sem banco pelo meio🚗 Estrada a 330 m · parque a 670 m⚖️ Zona de Utilização Livre · rampa mais próxima a 1519 m (limite: 100 m) | Lançamento 11 m para N, sem banco pelo meio</desc>
  <type>Spots</type>
  <extensions><osmand:color>#27ae60</osmand:color><osmand:icon>special_marker</osmand:icon><osmand:background>circle</osmand:background></extensions>
</wpt>
<wpt lat="39.38599" lon="-9.22563">
  <name>#10 · Musaranhos — extremo sudoeste</name>
  <desc>#10 do ranking. Isolado, estrada a 60 m. ⚠️ Rampa a 213 m.💧 34% de água que não seca num raio de 150 m · praticamente sem bancos🎯 Água logo a 11 m para OSO, sem banco pelo meio🚗 Estrada a 60 m · parque a 74 m⚖️ Zona de Utilização Livre · rampa mais próxima a 213 m (limite: 100 m)📍 pesqueiro «dos Musaranhos» a 203 m | Lançamento 11 m para OSO, sem banco pelo meio</desc>
  <type>Spots</type>
  <extensions><osmand:color>#27ae60</osmand:color><osmand:icon>special_marker</osmand:icon><osmand:background>circle</osmand:background></extensions>
</wpt>
<wpt lat="39.42769" lon="-9.22051">
  <name>#11 · Junto ao Cais da Foz do Arelho</name>
  <desc>#9 do ranking. ⚠️ Rampa a 202 m e na zona que fecha de 13 jun a 13 set. Fora da época balnear é livre.💧 39% de água que não seca num raio de 150 m · 9% de banco de areia🎯 Água logo a 11 m para S, sem banco pelo meio🚗 Estrada a 64 m · parque a 95 m⚖️ Zona de Utilização Livre · rampa mais próxima a 202 m (limite: 100 m)📍 parque de merendas a 124 m · pesqueiro «do Cais» a 104 m | Lançamento 11 m para S, sem banco pelo meio</desc>
  <type>Spots</type>
  <extensions><osmand:color>#f1c40f</osmand:color><osmand:icon>special_symbol_exclamation_mark</osmand:icon><osmand:background>circle</osmand:background></extensions>
</wpt>
<wpt lat="39.42274" lon="-9.20823">
  <name>#12 · Ponta do Carro — margem nascente norte</name>
  <desc>#11 do ranking. ⚠️ 20% de banco de areia à frente e rampa a 260 m. Na zona que fecha na época balnear.💧 27% de água que não seca num raio de 150 m · 20% de banco de areia🎯 Água logo a 11 m para S, sem banco pelo meio🚗 Estrada a 15 m · parque a 96 m⚖️ Zona de Utilização Livre · rampa mais próxima a 260 m (limite: 100 m)📍 pesqueiro «Ponta do Carro» a 229 m | Lançamento 11 m para S, sem banco pelo meio</desc>
  <type>Spots</type>
  <extensions><osmand:color>#f1c40f</osmand:color><osmand:icon>special_symbol_exclamation_mark</osmand:icon><osmand:background>circle</osmand:background></extensions>
</wpt>
<wpt lat="39.40528" lon="-9.21136">
  <name>O teu spot A — margem sul na Ecopista</name>
  <desc>Bom, e é onde estacionas. Zona Livre, água a 18 m para N sem banco pelo meio, rampa a 988 m, ETAR a 407 m.🎯 Mas anda mais 177 m para fora, pela língua de areia, e chegas ao #1 do ranking — lá tens 92% de água aberta à volta em vez de margem. Deixa o carro aqui e vai a pé. | Lançamento 18 m para N, sem banco pelo meio</desc>
  <type>Spots</type>
  <extensions><osmand:color>#27ae60</osmand:color><osmand:icon>special_marker</osmand:icon><osmand:background>circle</osmand:background></extensions>
</wpt>
<wpt lat="39.41486" lon="-9.2205">
  <name>O teu spot B — margem norte</name>
  <desc>Zona Livre, mas duas coisas contra: rampa a 165 m (limite 100 m, só 65 m de folga) e a água que não seca está a 118 m para NE com um banco de areia pelo meio. Na baixa-mar ficas a lançar para areia. Há melhores 400 m a sul. | Lançamento 118 m para NE COM banco de areia pelo meio</desc>
  <type>Spots</type>
  <extensions><osmand:color>#f1c40f</osmand:color><osmand:icon>special_symbol_exclamation_mark</osmand:icon><osmand:background>circle</osmand:background></extensions>
</wpt>
<wpt lat="39.40021" lon="-9.18683">
  <name>Barrosa — onde a Mariya vê aves</name>
  <desc>Ver aves: sem restrição. Pescar: não.Fica na bacia da Barrosa, a 622 m do Braço da Barrosa, fechado à pesca todo o ano — e a lei não publica onde acaba um e começa o outro. É também a zona mais assoreada, com banco entre a margem e a água.✅ Vai para a Ponta da Ardonia, a 1,3 km. | Lançamento 30 m para O COM banco de areia pelo meio</desc>
  <type>Spots</type>
  <extensions><osmand:color>#e74c3c</osmand:color><osmand:icon>special_symbol_remove</osmand:icon><osmand:background>circle</osmand:background></extensions>
</wpt>
<wpt lat="39.40363" lon="-9.21143">
  <name>#1 — lançar OSO 40 m</name>
  <desc>Alvo de lançamento. A 40 m ficas a 34 m da margem mais próxima. Rumo principal.</desc>
  <type>Lançamentos</type>
  <extensions><osmand:color>#e74c3c</osmand:color><osmand:icon>fishing</osmand:icon><osmand:background>square</osmand:background></extensions>
</wpt>
<wpt lat="39.40358" lon="-9.21165">
  <name>#1 — lançar OSO 60 m</name>
  <desc>Alvo de lançamento. A 60 m ficas a 54 m da margem mais próxima. Rumo principal.</desc>
  <type>Lançamentos</type>
  <extensions><osmand:color>#e74c3c</osmand:color><osmand:icon>fishing</osmand:icon><osmand:background>square</osmand:background></extensions>
</wpt>
<wpt lat="39.40353" lon="-9.21188">
  <name>#1 — lançar OSO 80 m</name>
  <desc>Alvo de lançamento. A 80 m ficas a 74 m da margem mais próxima. Rumo principal.</desc>
  <type>Lançamentos</type>
  <extensions><osmand:color>#e74c3c</osmand:color><osmand:icon>fishing</osmand:icon><osmand:background>square</osmand:background></extensions>
</wpt>
<wpt lat="39.40334" lon="-9.21147">
  <name>#1 — lançar SO 60 m</name>
  <desc>Alvo de lançamento. A 60 m ficas a 40 m da margem mais próxima. Rumo alternativo.</desc>
  <type>Lançamentos</type>
  <extensions><osmand:color>#e74c3c</osmand:color><osmand:icon>fishing</osmand:icon><osmand:background>square</osmand:background></extensions>
</wpt>
<wpt lat="39.39547" lon="-9.21866">
  <name>#2 — lançar ENE 40 m</name>
  <desc>Alvo de lançamento. A 40 m ficas a 27 m da margem mais próxima. Rumo principal.</desc>
  <type>Lançamentos</type>
  <extensions><osmand:color>#e74c3c</osmand:color><osmand:icon>fishing</osmand:icon><osmand:background>square</osmand:background></extensions>
</wpt>
<wpt lat="39.39556" lon="-9.21846">
  <name>#2 — lançar ENE 60 m</name>
  <desc>Alvo de lançamento. A 60 m ficas a 32 m da margem mais próxima. Rumo principal.</desc>
  <type>Lançamentos</type>
  <extensions><osmand:color>#e74c3c</osmand:color><osmand:icon>fishing</osmand:icon><osmand:background>square</osmand:background></extensions>
</wpt>
<wpt lat="39.39565" lon="-9.21825">
  <name>#2 — lançar ENE 80 m</name>
  <desc>Alvo de lançamento. A 80 m ficas a 39 m da margem mais próxima. Rumo principal.</desc>
  <type>Lançamentos</type>
  <extensions><osmand:color>#e74c3c</osmand:color><osmand:icon>fishing</osmand:icon><osmand:background>square</osmand:background></extensions>
</wpt>
<wpt lat="39.39491" lon="-9.21857">
  <name>#2 — lançar SE 60 m</name>
  <desc>Alvo de lançamento. A 60 m ficas a 18 m da margem mais próxima. Rumo alternativo.</desc>
  <type>Lançamentos</type>
  <extensions><osmand:color>#e74c3c</osmand:color><osmand:icon>fishing</osmand:icon><osmand:background>square</osmand:background></extensions>
</wpt>
<wpt lat="39.42821" lon="-9.22276">
  <name>⛔ pontão/cais — 100 m proibidos</name>
  <desc>Edital 24/2014 da Capitania de Peniche: proibido pescar a menos de 100 m de rampas de acesso de embarcações, embarcadouros e desembarcadouros.</desc>
  <type>Proibições</type>
  <extensions><osmand:color>#c0392b</osmand:color><osmand:icon>special_symbol_remove</osmand:icon><osmand:background>octagon</osmand:background></extensions>
</wpt>
<wpt lat="39.42245" lon="-9.22911">
  <name>⛔ rampa — 100 m proibidos</name>
  <desc>Edital 24/2014 da Capitania de Peniche: proibido pescar a menos de 100 m de rampas de acesso de embarcações, embarcadouros e desembarcadouros.</desc>
  <type>Proibições</type>
  <extensions><osmand:color>#c0392b</osmand:color><osmand:icon>special_symbol_remove</osmand:icon><osmand:background>octagon</osmand:background></extensions>
</wpt>
<wpt lat="39.4232" lon="-9.22986">
  <name>⛔ rampa — 100 m proibidos</name>
  <desc>Edital 24/2014 da Capitania de Peniche: proibido pescar a menos de 100 m de rampas de acesso de embarcações, embarcadouros e desembarcadouros.</desc>
  <type>Proibições</type>
  <extensions><osmand:color>#c0392b</osmand:color><osmand:icon>special_symbol_remove</osmand:icon><osmand:background>octagon</osmand:background></extensions>
</wpt>
<wpt lat="39.3879" lon="-9.22578">
  <name>⛔ rampa — 100 m proibidos</name>
  <desc>Edital 24/2014 da Capitania de Peniche: proibido pescar a menos de 100 m de rampas de acesso de embarcações, embarcadouros e desembarcadouros.</desc>
  <type>Proibições</type>
  <extensions><osmand:color>#c0392b</osmand:color><osmand:icon>special_symbol_remove</osmand:icon><osmand:background>octagon</osmand:background></extensions>
</wpt>
<wpt lat="39.42442" lon="-9.21033">
  <name>⛔ rampa — 100 m proibidos</name>
  <desc>Edital 24/2014 da Capitania de Peniche: proibido pescar a menos de 100 m de rampas de acesso de embarcações, embarcadouros e desembarcadouros.</desc>
  <type>Proibições</type>
  <extensions><osmand:color>#c0392b</osmand:color><osmand:icon>special_symbol_remove</osmand:icon><osmand:background>octagon</osmand:background></extensions>
</wpt>
<wpt lat="39.42471" lon="-9.21112">
  <name>⛔ pontão/cais — 100 m proibidos</name>
  <desc>Edital 24/2014 da Capitania de Peniche: proibido pescar a menos de 100 m de rampas de acesso de embarcações, embarcadouros e desembarcadouros.</desc>
  <type>Proibições</type>
  <extensions><osmand:color>#c0392b</osmand:color><osmand:icon>special_symbol_remove</osmand:icon><osmand:background>octagon</osmand:background></extensions>
</wpt>
<wpt lat="39.42614" lon="-9.21635">
  <name>⛔ rampa — 100 m proibidos</name>
  <desc>Edital 24/2014 da Capitania de Peniche: proibido pescar a menos de 100 m de rampas de acesso de embarcações, embarcadouros e desembarcadouros.</desc>
  <type>Proibições</type>
  <extensions><osmand:color>#c0392b</osmand:color><osmand:icon>special_symbol_remove</osmand:icon><osmand:background>octagon</osmand:background></extensions>
</wpt>
<wpt lat="39.41111" lon="-9.22003">
  <name>⛔ rampa — 100 m proibidos</name>
  <desc>Edital 24/2014 da Capitania de Peniche: proibido pescar a menos de 100 m de rampas de acesso de embarcações, embarcadouros e desembarcadouros.</desc>
  <type>Proibições</type>
  <extensions><osmand:color>#c0392b</osmand:color><osmand:icon>special_symbol_remove</osmand:icon><osmand:background>octagon</osmand:background></extensions>
</wpt>
<wpt lat="39.41616" lon="-9.22142">
  <name>⛔ rampa — 100 m proibidos</name>
  <desc>Edital 24/2014 da Capitania de Peniche: proibido pescar a menos de 100 m de rampas de acesso de embarcações, embarcadouros e desembarcadouros.</desc>
  <type>Proibições</type>
  <extensions><osmand:color>#c0392b</osmand:color><osmand:icon>special_symbol_remove</osmand:icon><osmand:background>octagon</osmand:background></extensions>
</wpt>
<wpt lat="39.42875" lon="-9.22796">
  <name>⛔ pontão/cais — 100 m proibidos</name>
  <desc>Edital 24/2014 da Capitania de Peniche: proibido pescar a menos de 100 m de rampas de acesso de embarcações, embarcadouros e desembarcadouros.</desc>
  <type>Proibições</type>
  <extensions><osmand:color>#c0392b</osmand:color><osmand:icon>special_symbol_remove</osmand:icon><osmand:background>octagon</osmand:background></extensions>
</wpt>
<trk>
  <name>#1 — linha de lançamento OSO</name>
  <desc>Rumo principal de lançamento.</desc>
  <extensions><osmand:color>#e74c3c</osmand:color><osmand:width>thick</osmand:width></extensions>
  <trkseg><trkpt lat="39.40372" lon="-9.21098"></trkpt><trkpt lat="39.40363" lon="-9.21143"></trkpt><trkpt lat="39.40358" lon="-9.21165"></trkpt><trkpt lat="39.40353" lon="-9.21188"></trkpt></trkseg>
</trk>
<trk>
  <name>#2 — linha de lançamento ENE</name>
  <desc>Rumo principal de lançamento.</desc>
  <extensions><osmand:color>#e74c3c</osmand:color><osmand:width>thick</osmand:width></extensions>
  <trkseg><trkpt lat="39.39529" lon="-9.21906"></trkpt><trkpt lat="39.39547" lon="-9.21866"></trkpt><trkpt lat="39.39556" lon="-9.21846"></trkpt><trkpt lat="39.39565" lon="-9.21825"></trkpt></trkseg>
</trk>
<trk>
  <name>Lagoa de Albufeira — Lagoa Grande</name>
  <desc>Pesca lúdica e profissional PROIBIDA todo o ano. A RCM 66/2019 põe a TOTALIDADE do plano de água da Lagoa Grande em Zona de Utilização Condicionada de carácter permanente; o art. 13.º n.º 1 a) do Regulamento de Gestão das Lagoas proíbe aí a pesca. | RCM 66/2019 (POC-ACE), Modelo Territorial</desc>
  <extensions><osmand:color>#8e44ad</osmand:color><osmand:width>thin</osmand:width></extensions>
  <trkseg><trkpt lat="38.51339" lon="-9.17533"></trkpt><trkpt lat="38.5135" lon="-9.17499"></trkpt><trkpt lat="38.5142" lon="-9.17497"></trkpt><trkpt lat="38.51527" lon="-9.17453"></trkpt><trkpt lat="38.51587" lon="-9.17398"></trkpt><trkpt lat="38.51619" lon="-9.17325"></trkpt><trkpt lat="38.51668" lon="-9.17303"></trkpt><trkpt lat="38.517" lon="-9.17077"></trkpt><trkpt lat="38.5168" lon="-9.16829"></trkpt><trkpt lat="38.51783" lon="-9.1687"></trkpt><trkpt lat="38.51803" lon="-9.16853"></trkpt><trkpt lat="38.51807" lon="-9.16795"></trkpt><trkpt lat="38.51929" lon="-9.16775"></trkpt><trkpt lat="38.52003" lon="-9.16693"></trkpt><trkpt lat="38.52089" lon="-9.16542"></trkpt><trkpt lat="38.52136" lon="-9.16333"></trkpt><trkpt lat="38.52184" lon="-9.16299"></trkpt><trkpt lat="38.5223" lon="-9.16185"></trkpt><trkpt lat="38.52271" lon="-9.16189"></trkpt><trkpt lat="38.52317" lon="-9.16093"></trkpt><trkpt lat="38.52305" lon="-9.15925"></trkpt><trkpt lat="38.52166" lon="-9.15669"></trkpt><trkpt lat="38.52028" lon="-9.15489"></trkpt><trkpt lat="38.52017" lon="-9.15444"></trkpt><trkpt lat="38.52054" lon="-9.15381"></trkpt><trkpt lat="38.52168" lon="-9.15409"></trkpt><trkpt lat="38.52186" lon="-9.15341"></trkpt><trkpt lat="38.52259" lon="-9.15288"></trkpt><trkpt lat="38.52289" lon="-9.15227"></trkpt><trkpt lat="38.52303" lon="-9.15156"></trkpt><trkpt lat="38.5227" lon="-9.1504"></trkpt><trkpt lat="38.52265" lon="-9.14911"></trkpt><trkpt lat="38.52293" lon="-9.14873"></trkpt><trkpt lat="38.52359" lon="-9.14634"></trkpt><trkpt lat="38.52407" lon="-9.1456"></trkpt><trkpt lat="38.52393" lon="-9.14506"></trkpt><trkpt lat="38.52342" lon="-9.14462"></trkpt><trkpt lat="38.52274" lon="-9.14455"></trkpt><trkpt lat="38.52169" lon="-9.14575"></trkpt><trkpt lat="38.52149" lon="-9.14745"></trkpt><trkpt lat="38.52067" lon="-9.14904"></trkpt><trkpt lat="38.52066" lon="-9.14981"></trkpt><trkpt lat="38.52092" lon="-9.15066"></trkpt><trkpt lat="38.51994" lon="-9.15364"></trkpt><trkpt lat="38.51976" lon="-9.15507"></trkpt><trkpt lat="38.52027" lon="-9.15546"></trkpt><trkpt lat="38.5207" lon="-9.15648"></trkpt><trkpt lat="38.52067" lon="-9.15759"></trkpt><trkpt lat="38.52085" lon="-9.15752"></trkpt><trkpt lat="38.52085" lon="-9.15811"></trkpt><trkpt lat="38.52041" lon="-9.15843"></trkpt><trkpt lat="38.51924" lon="-9.15848"></trkpt><trkpt lat="38.5186" lon="-9.15929"></trkpt><trkpt lat="38.51655" lon="-9.16104"></trkpt><trkpt lat="38.51612" lon="-9.16183"></trkpt><trkpt lat="38.5159" lon="-9.16291"></trkpt><trkpt lat="38.51604" lon="-9.16415"></trkpt><trkpt lat="38.51643" lon="-9.16515"></trkpt><trkpt lat="38.51635" lon="-9.16576"></trkpt><trkpt lat="38.51506" lon="-9.16669"></trkpt><trkpt lat="38.51365" lon="-9.16734"></trkpt><trkpt lat="38.51274" lon="-9.16834"></trkpt><trkpt lat="38.51252" lon="-9.1701"></trkpt><trkpt lat="38.51133" lon="-9.1712"></trkpt><trkpt lat="38.50959" lon="-9.17362"></trkpt><trkpt lat="38.50906" lon="-9.17573"></trkpt><trkpt lat="38.51039" lon="-9.17618"></trkpt><trkpt lat="38.51145" lon="-9.17599"></trkpt><trkpt lat="38.51319" lon="-9.17522"></trkpt><trkpt lat="38.51339" lon="-9.17533"></trkpt><trkpt lat="38.51339" lon="-9.17533"></trkpt></trkseg>
</trk>
<trk>
  <name>Lagoa de Albufeira — braço oeste (barra)</name>
  <desc>Mesma regra: faz parte do plano de água da Lagoa Grande. | RCM 66/2019 (POC-ACE), Modelo Territorial</desc>
  <extensions><osmand:color>#8e44ad</osmand:color><osmand:width>thin</osmand:width></extensions>
  <trkseg><trkpt lat="38.51339" lon="-9.17533"></trkpt><trkpt lat="38.51337" lon="-9.17587"></trkpt><trkpt lat="38.5138" lon="-9.17716"></trkpt><trkpt lat="38.51495" lon="-9.17942"></trkpt><trkpt lat="38.51328" lon="-9.18036"></trkpt><trkpt lat="38.51298" lon="-9.18129"></trkpt><trkpt lat="38.51084" lon="-9.18124"></trkpt><trkpt lat="38.50924" lon="-9.18053"></trkpt><trkpt lat="38.5088" lon="-9.18142"></trkpt><trkpt lat="38.50833" lon="-9.18168"></trkpt><trkpt lat="38.50745" lon="-9.18152"></trkpt><trkpt lat="38.50724" lon="-9.17892"></trkpt><trkpt lat="38.50886" lon="-9.17666"></trkpt><trkpt lat="38.50906" lon="-9.17573"></trkpt><trkpt lat="38.51039" lon="-9.17618"></trkpt><trkpt lat="38.51145" lon="-9.17599"></trkpt><trkpt lat="38.51319" lon="-9.17522"></trkpt><trkpt lat="38.51339" lon="-9.17533"></trkpt><trkpt lat="38.51339" lon="-9.17533"></trkpt></trkseg>
</trk>
<trk>
  <name>Lagoa de Óbidos — Braço da Barrosa</name>
  <desc>Pesca lúdica e profissional PROIBIDA todo o ano. Art. 12.º n.º 2: &quot;Na Lagoa de Óbidos é delimitada uma zona de utilização condicionada permanente, CONFINADA AO BRAÇO DA BARROSA.&quot; Art. 13.º n.º 1 a): nessas zonas não é permitida &quot;Pesca profissional e lúdica&quot;. ⚠️ Há também um pontão/embarcadouro/rampa oficial no Braço da Barrosa (Anexo I) — mais 100 m proibidos à volta dele. | Regulamento de Gestão das Lagoas de Óbidos e Albufeira (POC-ACE), arts. 10.º a 15.º</desc>
  <extensions><osmand:color>#8e44ad</osmand:color><osmand:width>thin</osmand:width></extensions>
  <trkseg><trkpt lat="39.40428" lon="-9.19202"></trkpt><trkpt lat="39.40366" lon="-9.19308"></trkpt><trkpt lat="39.40345" lon="-9.19593"></trkpt><trkpt lat="39.40152" lon="-9.19711"></trkpt><trkpt lat="39.40275" lon="-9.19903"></trkpt><trkpt lat="39.40277" lon="-9.20031"></trkpt><trkpt lat="39.40333" lon="-9.19978"></trkpt><trkpt lat="39.4038" lon="-9.19743"></trkpt><trkpt lat="39.40444" lon="-9.19649"></trkpt><trkpt lat="39.40459" lon="-9.1956"></trkpt><trkpt lat="39.40424" lon="-9.1949"></trkpt><trkpt lat="39.40503" lon="-9.19271"></trkpt><trkpt lat="39.40428" lon="-9.19202"></trkpt><trkpt lat="39.40428" lon="-9.19202"></trkpt></trkseg>
</trk>
<trk>
  <name>Lagoa de Óbidos — Poça das Ferrarias</name>
  <desc>ZONA INTERDITA — a mais fechada de todas. Art. 10.º n.º 2: &quot;No plano de água da Lagoa de Óbidos a zona de utilização interdita abrange a Poça das Ferrarias.&quot; Art. 11.º n.º 1: &quot;não são permitidas QUAISQUER atividades, designadamente a prática balnear, a navegação recreativa (…), A PESCA, a apanha de animais marinhos e a aquicultura.&quot; ⚠️ Está marcada como pesqueiro no OpenStreetMap — ignora isso. | Regulamento de Gestão das Lagoas de Óbidos e Albufeira (POC-ACE), arts. 10.º a 15.º</desc>
  <extensions><osmand:color>#8b0000</osmand:color><osmand:width>thin</osmand:width></extensions>
  <trkseg><trkpt lat="39.40067" lon="-9.21951"></trkpt><trkpt lat="39.39971" lon="-9.22242"></trkpt><trkpt lat="39.40019" lon="-9.22404"></trkpt><trkpt lat="39.40188" lon="-9.22285"></trkpt><trkpt lat="39.40225" lon="-9.22063"></trkpt><trkpt lat="39.4015" lon="-9.22014"></trkpt><trkpt lat="39.40052" lon="-9.22119"></trkpt><trkpt lat="39.40067" lon="-9.21951"></trkpt><trkpt lat="39.40067" lon="-9.21951"></trkpt></trkseg>
</trk>
<trk>
  <name>Lagoa de Óbidos — Barrosa (leitura duvidosa)</name>
  <desc>⚠️ NÃO TENHO CERTEZA. A lei fecha o &quot;Braço da Barrosa&quot; o ano todo, mas não publica a geometria — só o Modelo Territorial do POC-ACE a tem, e esse não está online. O OpenStreetMap separa &quot;Braço da Barrosa&quot; (o canal) de &quot;Barrosa&quot; (esta bacia), mas é plausível que a lei chame &quot;Braço da Barrosa&quot; ao braço TODO, incluindo isto. Margem de segurança: não pescar aqui. Fica ~1 km a poente e estás no claro. | Regulamento de Gestão das Lagoas de Óbidos e Albufeira (POC-ACE), arts. 10.º a 15.º — geometria não publicada</desc>
  <extensions><osmand:color>#d35400</osmand:color><osmand:width>thin</osmand:width></extensions>
  <trkseg><trkpt lat="39.40211" lon="-9.18686"></trkpt><trkpt lat="39.40243" lon="-9.18603"></trkpt><trkpt lat="39.40229" lon="-9.18557"></trkpt><trkpt lat="39.40158" lon="-9.18563"></trkpt><trkpt lat="39.40144" lon="-9.18419"></trkpt><trkpt lat="39.40216" lon="-9.18367"></trkpt><trkpt lat="39.40213" lon="-9.18196"></trkpt><trkpt lat="39.40469" lon="-9.18585"></trkpt><trkpt lat="39.40618" lon="-9.18911"></trkpt><trkpt lat="39.40791" lon="-9.18942"></trkpt><trkpt lat="39.40775" lon="-9.19012"></trkpt><trkpt lat="39.40559" lon="-9.19132"></trkpt><trkpt lat="39.40527" lon="-9.19262"></trkpt><trkpt lat="39.40348" lon="-9.19171"></trkpt><trkpt lat="39.40192" lon="-9.18905"></trkpt><trkpt lat="39.40056" lon="-9.18797"></trkpt><trkpt lat="39.39994" lon="-9.18677"></trkpt><trkpt lat="39.40075" lon="-9.18589"></trkpt><trkpt lat="39.40114" lon="-9.18666"></trkpt><trkpt lat="39.40211" lon="-9.18686"></trkpt><trkpt lat="39.40211" lon="-9.18686"></trkpt></trkseg>
</trk>
<trk>
  <name>Lagoa de Óbidos — Zona de Utilização Livre</name>
  <desc>PODES PESCAR, o ano todo, de dia e de noite, da margem. Art. 14.º: a zona de utilização livre abrange a totalidade do sector Sul da lagoa, com exceção do Braço da Barrosa e da Poça das Ferrarias, e é delimitada a Norte pela linha que une o Cais na Foz do Arelho ao final da Zona Balnear do Bom Sucesso. Regras da lagoa (Portaria 567/90): máx. 2 canas, 3 anzóis por cana, abertura mínima 8 mm, caça submarina proibida. Licença: a de MAR (DGRM), não a do ICNF. | Regulamento de Gestão das Lagoas de Óbidos e Albufeira (POC-ACE), arts. 10.º a 15.º + Portaria 567/90</desc>
  <extensions><osmand:color>#27ae60</osmand:color><osmand:width>thin</osmand:width></extensions>
  <trkseg><trkpt lat="39.42827" lon="-9.22242"></trkpt><trkpt lat="39.42798" lon="-9.22122"></trkpt><trkpt lat="39.42659" lon="-9.21738"></trkpt><trkpt lat="39.42453" lon="-9.21416"></trkpt><trkpt lat="39.42502" lon="-9.21124"></trkpt><trkpt lat="39.424" lon="-9.21045"></trkpt><trkpt lat="39.42214" lon="-9.20703"></trkpt><trkpt lat="39.4201" lon="-9.20507"></trkpt><trkpt lat="39.41792" lon="-9.20429"></trkpt><trkpt lat="39.41534" lon="-9.20435"></trkpt><trkpt lat="39.4103" lon="-9.20235"></trkpt><trkpt lat="39.40712" lon="-9.20165"></trkpt><trkpt lat="39.40469" lon="-9.20172"></trkpt><trkpt lat="39.40277" lon="-9.20031"></trkpt><trkpt lat="39.40275" lon="-9.19903"></trkpt><trkpt lat="39.40152" lon="-9.19711"></trkpt><trkpt lat="39.39987" lon="-9.19842"></trkpt><trkpt lat="39.3992" lon="-9.19841"></trkpt><trkpt lat="39.39855" lon="-9.20333"></trkpt><trkpt lat="39.39922" lon="-9.20425"></trkpt><trkpt lat="39.4012" lon="-9.20453"></trkpt><trkpt lat="39.40149" lon="-9.20525"></trkpt><trkpt lat="39.40241" lon="-9.20469"></trkpt><trkpt lat="39.40214" lon="-9.20792"></trkpt><trkpt lat="39.40002" lon="-9.21022"></trkpt><trkpt lat="39.39906" lon="-9.20829"></trkpt><trkpt lat="39.39808" lon="-9.20746"></trkpt><trkpt lat="39.39743" lon="-9.20792"></trkpt><trkpt lat="39.39506" lon="-9.21271"></trkpt><trkpt lat="39.39448" lon="-9.21576"></trkpt><trkpt lat="39.393" lon="-9.21643"></trkpt><trkpt lat="39.39268" lon="-9.21791"></trkpt><trkpt lat="39.39153" lon="-9.21986"></trkpt><trkpt lat="39.39017" lon="-9.2202"></trkpt><trkpt lat="39.38942" lon="-9.22164"></trkpt><trkpt lat="39.38715" lon="-9.22307"></trkpt><trkpt lat="39.38679" lon="-9.22458"></trkpt><trkpt lat="39.38632" lon="-9.22521"></trkpt><trkpt lat="39.38612" lon="-9.22498"></trkpt><trkpt lat="39.3863" lon="-9.22532"></trkpt><trkpt lat="39.38598" lon="-9.22514"></trkpt><trkpt lat="39.3862" lon="-9.22544"></trkpt><trkpt lat="39.38549" lon="-9.22627"></trkpt><trkpt lat="39.38648" lon="-9.22718"></trkpt><trkpt lat="39.3879" lon="-9.22572"></trkpt><trkpt lat="39.39016" lon="-9.22481"></trkpt><trkpt lat="39.39099" lon="-9.22388"></trkpt><trkpt lat="39.39223" lon="-9.2233"></trkpt><trkpt lat="39.39444" lon="-9.22086"></trkpt><trkpt lat="39.39529" lon="-9.21906"></trkpt><trkpt lat="39.39655" lon="-9.2194"></trkpt><trkpt lat="39.39556" lon="-9.21915"></trkpt><trkpt lat="39.39692" lon="-9.21835"></trkpt><trkpt lat="39.39757" lon="-9.21568"></trkpt><trkpt lat="39.3979" lon="-9.21621"></trkpt><trkpt lat="39.39995" lon="-9.21617"></trkpt><trkpt lat="39.40059" lon="-9.21933"></trkpt><trkpt lat="39.40078" lon="-9.21969"></trkpt><trkpt lat="39.40124" lon="-9.21951"></trkpt><trkpt lat="39.40392" lon="-9.21557"></trkpt><trkpt lat="39.40491" lon="-9.2133"></trkpt><trkpt lat="39.40495" lon="-9.21189"></trkpt><trkpt lat="39.40372" lon="-9.21098"></trkpt><trkpt lat="39.40498" lon="-9.21123"></trkpt><trkpt lat="39.40726" lon="-9.21296"></trkpt><trkpt lat="39.40831" lon="-9.2176"></trkpt><trkpt lat="39.41047" lon="-9.21974"></trkpt><trkpt lat="39.41157" lon="-9.22009"></trkpt><trkpt lat="39.41224" lon="-9.22107"></trkpt><trkpt lat="39.41291" lon="-9.22096"></trkpt><trkpt lat="39.41364" lon="-9.22172"></trkpt><trkpt lat="39.41381" lon="-9.22075"></trkpt><trkpt lat="39.41802" lon="-9.21583"></trkpt><trkpt lat="39.42148" lon="-9.21314"></trkpt><trkpt lat="39.4224" lon="-9.21424"></trkpt><trkpt lat="39.42406" lon="-9.21919"></trkpt><trkpt lat="39.42011" lon="-9.21912"></trkpt><trkpt lat="39.42008" lon="-9.21975"></trkpt><trkpt lat="39.42407" lon="-9.21979"></trkpt><trkpt lat="39.42385" lon="-9.22182"></trkpt><trkpt lat="39.42281" lon="-9.22292"></trkpt><trkpt lat="39.42242" lon="-9.22562"></trkpt><trkpt lat="39.425" lon="-9.2265"></trkpt><trkpt lat="39.42494" lon="-9.22829"></trkpt><trkpt lat="39.42541" lon="-9.22948"></trkpt><trkpt lat="39.42506" lon="-9.23489"></trkpt><trkpt lat="39.42827" lon="-9.22242"></trkpt></trkseg>
</trk>
<trk>
  <name>Lagoa de Óbidos — sector Norte (só fechado na época balnear)</name>
  <desc>PESCA PROIBIDA APENAS DE 13 JUN A 13 SET. Art. 12.º n.º 3 a) + art. 13.º n.º 2 a). Fora da época balnear deixa de haver esta proibição. ⚠️ Nesta mesma zona o Edital 13/2026 da Capitania de Peniche interdita TODA A NAVEGAÇÃO durante a época balnear (coima 400 a 2500 €) — isso é para embarcações, não te impede de pescar da margem fora da época. | Regulamento das Lagoas art. 12.º n.º 3 a) · linha ancorada no Cais da Foz do Arelho 39º25.69&#x27;N 009º13.37&#x27;W (Edital 13/2026 de Peniche)</desc>
  <extensions><osmand:color>#e67e22</osmand:color><osmand:width>thin</osmand:width></extensions>
  <trkseg><trkpt lat="39.42744" lon="-9.23599"></trkpt><trkpt lat="39.42763" lon="-9.23398"></trkpt><trkpt lat="39.42869" lon="-9.23268"></trkpt><trkpt lat="39.43003" lon="-9.23185"></trkpt><trkpt lat="39.43091" lon="-9.22811"></trkpt><trkpt lat="39.42917" lon="-9.22815"></trkpt><trkpt lat="39.42872" lon="-9.22868"></trkpt><trkpt lat="39.42912" lon="-9.22588"></trkpt><trkpt lat="39.42827" lon="-9.22242"></trkpt><trkpt lat="39.42506" lon="-9.23489"></trkpt><trkpt lat="39.42506" lon="-9.23491"></trkpt><trkpt lat="39.42557" lon="-9.2362"></trkpt><trkpt lat="39.42629" lon="-9.23677"></trkpt><trkpt lat="39.42708" lon="-9.23667"></trkpt><trkpt lat="39.42744" lon="-9.23599"></trkpt><trkpt lat="39.42744" lon="-9.23599"></trkpt></trkseg>
</trk>
<trk>
  <name>Lagoa de Óbidos — Zona de Utilização Livre</name>
  <desc>PODES PESCAR, o ano todo, de dia e de noite, da margem. Art. 14.º: a zona de utilização livre abrange a totalidade do sector Sul da lagoa, com exceção do Braço da Barrosa e da Poça das Ferrarias, e é delimitada a Norte pela linha que une o Cais na Foz do Arelho ao final da Zona Balnear do Bom Sucesso. Regras da lagoa (Portaria 567/90): máx. 2 canas, 3 anzóis por cana, abertura mínima 8 mm, caça submarina proibida. Licença: a de MAR (DGRM), não a do ICNF. | Regulamento de Gestão das Lagoas de Óbidos e Albufeira (POC-ACE), arts. 10.º a 15.º + Portaria 567/90</desc>
  <extensions><osmand:color>#27ae60</osmand:color><osmand:width>thin</osmand:width></extensions>
  <trkseg><trkpt lat="39.42281" lon="-9.22292"></trkpt><trkpt lat="39.4214" lon="-9.22266"></trkpt><trkpt lat="39.41926" lon="-9.22109"></trkpt><trkpt lat="39.41935" lon="-9.21755"></trkpt><trkpt lat="39.41891" lon="-9.21753"></trkpt><trkpt lat="39.41887" lon="-9.22088"></trkpt><trkpt lat="39.4158" lon="-9.21852"></trkpt><trkpt lat="39.41381" lon="-9.22075"></trkpt><trkpt lat="39.41364" lon="-9.22172"></trkpt><trkpt lat="39.41455" lon="-9.22017"></trkpt><trkpt lat="39.41615" lon="-9.22059"></trkpt><trkpt lat="39.41998" lon="-9.2232"></trkpt><trkpt lat="39.42242" lon="-9.22562"></trkpt><trkpt lat="39.42281" lon="-9.22292"></trkpt><trkpt lat="39.42281" lon="-9.22292"></trkpt></trkseg>
</trk>
<trk>
  <name>Lagoa de Óbidos — Zona de Utilização Livre</name>
  <desc>PODES PESCAR, o ano todo, de dia e de noite, da margem. Art. 14.º: a zona de utilização livre abrange a totalidade do sector Sul da lagoa, com exceção do Braço da Barrosa e da Poça das Ferrarias, e é delimitada a Norte pela linha que une o Cais na Foz do Arelho ao final da Zona Balnear do Bom Sucesso. Regras da lagoa (Portaria 567/90): máx. 2 canas, 3 anzóis por cana, abertura mínima 8 mm, caça submarina proibida. Licença: a de MAR (DGRM), não a do ICNF. | Regulamento de Gestão das Lagoas de Óbidos e Albufeira (POC-ACE), arts. 10.º a 15.º + Portaria 567/90</desc>
  <extensions><osmand:color>#27ae60</osmand:color><osmand:width>thin</osmand:width></extensions>
  <trkseg><trkpt lat="39.41967" lon="-9.21431"></trkpt><trkpt lat="39.42148" lon="-9.21314"></trkpt><trkpt lat="39.42282" lon="-9.21524"></trkpt><trkpt lat="39.42406" lon="-9.21919"></trkpt><trkpt lat="39.42011" lon="-9.21912"></trkpt><trkpt lat="39.42008" lon="-9.21975"></trkpt><trkpt lat="39.42407" lon="-9.21979"></trkpt><trkpt lat="39.42385" lon="-9.22182"></trkpt><trkpt lat="39.42281" lon="-9.22292"></trkpt><trkpt lat="39.4214" lon="-9.22266"></trkpt><trkpt lat="39.41926" lon="-9.22109"></trkpt><trkpt lat="39.41935" lon="-9.21755"></trkpt><trkpt lat="39.41891" lon="-9.21753"></trkpt><trkpt lat="39.41887" lon="-9.22088"></trkpt><trkpt lat="39.4158" lon="-9.21852"></trkpt><trkpt lat="39.41967" lon="-9.21431"></trkpt><trkpt lat="39.41967" lon="-9.21431"></trkpt></trkseg>
</trk>
<trk>
  <name>Banco de areia 1</name>
  <desc>Fica a seco ou muito raso na baixa-mar. Não lances para aqui — passa por cima.</desc>
  <extensions><osmand:color>#f4d03f</osmand:color><osmand:width>thin</osmand:width></extensions>
  <trkseg><trkpt lat="39.41559" lon="-9.21834"></trkpt><trkpt lat="39.41591" lon="-9.21892"></trkpt><trkpt lat="39.4167" lon="-9.21948"></trkpt><trkpt lat="39.41743" lon="-9.2203"></trkpt><trkpt lat="39.41776" lon="-9.22038"></trkpt><trkpt lat="39.41799" lon="-9.22077"></trkpt><trkpt lat="39.41886" lon="-9.22128"></trkpt><trkpt lat="39.41901" lon="-9.22109"></trkpt><trkpt lat="39.41901" lon="-9.2177"></trkpt><trkpt lat="39.41922" lon="-9.21764"></trkpt><trkpt lat="39.41924" lon="-9.22131"></trkpt><trkpt lat="39.42035" lon="-9.22257"></trkpt><trkpt lat="39.42194" lon="-9.22309"></trkpt><trkpt lat="39.42179" lon="-9.22332"></trkpt><trkpt lat="39.42194" lon="-9.22373"></trkpt><trkpt lat="39.42234" lon="-9.22395"></trkpt><trkpt lat="39.42254" lon="-9.22369"></trkpt><trkpt lat="39.42267" lon="-9.22399"></trkpt><trkpt lat="39.42325" lon="-9.2241"></trkpt><trkpt lat="39.42275" lon="-9.22478"></trkpt><trkpt lat="39.42297" lon="-9.22523"></trkpt><trkpt lat="39.42269" lon="-9.22513"></trkpt><trkpt lat="39.42272" lon="-9.225"></trkpt><trkpt lat="39.4222" lon="-9.2242"></trkpt><trkpt lat="39.42169" lon="-9.22452"></trkpt><trkpt lat="39.42247" lon="-9.22553"></trkpt><trkpt lat="39.42313" lon="-9.2257"></trkpt><trkpt lat="39.4232" lon="-9.2254"></trkpt><trkpt lat="39.42353" lon="-9.22596"></trkpt><trkpt lat="39.42514" lon="-9.22658"></trkpt><trkpt lat="39.4253" lon="-9.22774"></trkpt><trkpt lat="39.42504" lon="-9.2283"></trkpt><trkpt lat="39.4255" lon="-9.22916"></trkpt><trkpt lat="39.4254" lon="-9.23015"></trkpt><trkpt lat="39.4255" lon="-9.23079"></trkpt><trkpt lat="39.42514" lon="-9.23238"></trkpt><trkpt lat="39.42511" lon="-9.23478"></trkpt><trkpt lat="39.4255" lon="-9.23594"></trkpt><trkpt lat="39.42585" lon="-9.23639"></trkpt><trkpt lat="39.42641" lon="-9.23673"></trkpt><trkpt lat="39.42711" lon="-9.23661"></trkpt><trkpt lat="39.42729" lon="-9.23615"></trkpt><trkpt lat="39.42709" lon="-9.23568"></trkpt><trkpt lat="39.42728" lon="-9.23575"></trkpt><trkpt lat="39.42743" lon="-9.23555"></trkpt><trkpt lat="39.42756" lon="-9.23401"></trkpt><trkpt lat="39.42812" lon="-9.23358"></trkpt><trkpt lat="39.4285" lon="-9.23266"></trkpt><trkpt lat="39.42946" lon="-9.2324"></trkpt><trkpt lat="39.42991" lon="-9.23199"></trkpt><trkpt lat="39.43044" lon="-9.2307"></trkpt><trkpt lat="39.43048" lon="-9.23006"></trkpt><trkpt lat="39.43028" lon="-9.22963"></trkpt><trkpt lat="39.43077" lon="-9.22912"></trkpt><trkpt lat="39.43043" lon="-9.22879"></trkpt><trkpt lat="39.43023" lon="-9.22901"></trkpt><trkpt lat="39.43004" lon="-9.22882"></trkpt><trkpt lat="39.43011" lon="-9.22864"></trkpt><trkpt lat="39.42983" lon="-9.22849"></trkpt><trkpt lat="39.42933" lon="-9.22867"></trkpt><trkpt lat="39.42892" lon="-9.22907"></trkpt><trkpt lat="39.4287" lon="-9.23004"></trkpt><trkpt lat="39.42847" lon="-9.23004"></trkpt><trkpt lat="39.42815" lon="-9.22942"></trkpt><trkpt lat="39.4282" lon="-9.22892"></trkpt><trkpt lat="39.42825" lon="-9.22933"></trkpt><trkpt lat="39.4286" lon="-9.22978"></trkpt><trkpt lat="39.42875" lon="-9.22959"></trkpt><trkpt lat="39.42875" lon="-9.22937"></trkpt><trkpt lat="39.42845" lon="-9.22894"></trkpt><trkpt lat="39.42855" lon="-9.22847"></trkpt><trkpt lat="39.42849" lon="-9.22783"></trkpt><trkpt lat="39.42875" lon="-9.22654"></trkpt><trkpt lat="39.42893" lon="-9.22669"></trkpt><trkpt lat="39.42908" lon="-9.22637"></trkpt><trkpt lat="39.42902" lon="-9.22543"></trkpt><trkpt lat="39.42835" lon="-9.22307"></trkpt><trkpt lat="39.42802" lon="-9.22276"></trkpt><trkpt lat="39.42815" lon="-9.22246"></trkpt><trkpt lat="39.42751" lon="-9.22171"></trkpt><trkpt lat="39.42736" lon="-9.22191"></trkpt><trkpt lat="39.42749" lon="-9.22255"></trkpt><trkpt lat="39.42743" lon="-9.22328"></trkpt><trkpt lat="39.42769" lon="-9.22375"></trkpt><trkpt lat="39.42766" lon="-9.22431"></trkpt><trkpt lat="39.42738" lon="-9.22416"></trkpt><trkpt lat="39.42723" lon="-9.22427"></trkpt><trkpt lat="39.42736" lon="-9.22375"></trkpt><trkpt lat="39.42676" lon="-9.22199"></trkpt><trkpt lat="39.42646" lon="-9.2204"></trkpt><trkpt lat="39.42686" lon="-9.22019"></trkpt><trkpt lat="39.4267" lon="-9.21968"></trkpt><trkpt lat="39.42602" lon="-9.21901"></trkpt><trkpt lat="39.42544" lon="-9.22002"></trkpt><trkpt lat="39.42627" lon="-9.22139"></trkpt><trkpt lat="39.42623" lon="-9.22156"></trkpt><trkpt lat="39.42512" lon="-9.22141"></trkpt><trkpt lat="39.42443" lon="-9.22223"></trkpt><trkpt lat="39.42431" lon="-9.22212"></trkpt><trkpt lat="39.42438" lon="-9.22182"></trkpt><trkpt lat="39.42471" lon="-9.22122"></trkpt><trkpt lat="39.42537" lon="-9.22075"></trkpt><trkpt lat="39.42482" lon="-9.21983"></trkpt><trkpt lat="39.42022" lon="-9.21961"></trkpt><trkpt lat="39.42022" lon="-9.21935"></trkpt><trkpt lat="39.42068" lon="-9.21931"></trkpt><trkpt lat="39.42456" lon="-9.2194"></trkpt><trkpt lat="39.42471" lon="-9.2192"></trkpt><trkpt lat="39.42404" lon="-9.21731"></trkpt><trkpt lat="39.42262" lon="-9.21444"></trkpt><trkpt lat="39.42161" lon="-9.21304"></trkpt><trkpt lat="39.42131" lon="-9.21292"></trkpt><trkpt lat="39.42094" lon="-9.21335"></trkpt><trkpt lat="39.42058" lon="-9.21339"></trkpt><trkpt lat="39.41925" lon="-9.21459"></trkpt><trkpt lat="39.41872" lon="-9.2148"></trkpt><trkpt lat="39.41604" lon="-9.21759"></trkpt><trkpt lat="39.41559" lon="-9.21834"></trkpt><trkpt lat="39.41559" lon="-9.21834"></trkpt></trkseg>
</trk>
<trk>
  <name>Banco de areia 2</name>
  <desc>Fica a seco ou muito raso na baixa-mar. Não lances para aqui — passa por cima.</desc>
  <extensions><osmand:color>#f4d03f</osmand:color><osmand:width>thin</osmand:width></extensions>
  <trkseg><trkpt lat="39.40156" lon="-9.18453"></trkpt><trkpt lat="39.40168" lon="-9.18554"></trkpt><trkpt lat="39.40213" lon="-9.1853"></trkpt><trkpt lat="39.40196" lon="-9.18504"></trkpt><trkpt lat="39.40218" lon="-9.18463"></trkpt><trkpt lat="39.40248" lon="-9.18463"></trkpt><trkpt lat="39.40347" lon="-9.18515"></trkpt><trkpt lat="39.40399" lon="-9.18581"></trkpt><trkpt lat="39.40418" lon="-9.18633"></trkpt><trkpt lat="39.40432" lon="-9.18702"></trkpt><trkpt lat="39.40412" lon="-9.18787"></trkpt><trkpt lat="39.40415" lon="-9.18856"></trkpt><trkpt lat="39.40481" lon="-9.18981"></trkpt><trkpt lat="39.40501" lon="-9.19071"></trkpt><trkpt lat="39.40498" lon="-9.19178"></trkpt><trkpt lat="39.40465" lon="-9.19268"></trkpt><trkpt lat="39.40476" lon="-9.19292"></trkpt><trkpt lat="39.40531" lon="-9.19247"></trkpt><trkpt lat="39.40531" lon="-9.19174"></trkpt><trkpt lat="39.40559" lon="-9.19124"></trkpt><trkpt lat="39.40672" lon="-9.19086"></trkpt><trkpt lat="39.40773" lon="-9.18998"></trkpt><trkpt lat="39.40772" lon="-9.18953"></trkpt><trkpt lat="39.40738" lon="-9.18936"></trkpt><trkpt lat="39.40629" lon="-9.18927"></trkpt><trkpt lat="39.40607" lon="-9.18908"></trkpt><trkpt lat="39.40568" lon="-9.18809"></trkpt><trkpt lat="39.40508" lon="-9.18732"></trkpt><trkpt lat="39.40462" lon="-9.18586"></trkpt><trkpt lat="39.40302" lon="-9.18371"></trkpt><trkpt lat="39.40289" lon="-9.18324"></trkpt><trkpt lat="39.40246" lon="-9.18281"></trkpt><trkpt lat="39.40218" lon="-9.1821"></trkpt><trkpt lat="39.40206" lon="-9.18225"></trkpt><trkpt lat="39.40203" lon="-9.1829"></trkpt><trkpt lat="39.40226" lon="-9.18367"></trkpt><trkpt lat="39.40173" lon="-9.18414"></trkpt><trkpt lat="39.40185" lon="-9.18451"></trkpt><trkpt lat="39.40168" lon="-9.18438"></trkpt><trkpt lat="39.40156" lon="-9.18453"></trkpt><trkpt lat="39.40156" lon="-9.18453"></trkpt></trkseg>
</trk>
<trk>
  <name>Banco de areia 3</name>
  <desc>Fica a seco ou muito raso na baixa-mar. Não lances para aqui — passa por cima.</desc>
  <extensions><osmand:color>#f4d03f</osmand:color><osmand:width>thin</osmand:width></extensions>
  <trkseg><trkpt lat="39.41191" lon="-9.20337"></trkpt><trkpt lat="39.41262" lon="-9.20399"></trkpt><trkpt lat="39.41286" lon="-9.20386"></trkpt><trkpt lat="39.41335" lon="-9.20425"></trkpt><trkpt lat="39.41392" lon="-9.20498"></trkpt><trkpt lat="39.41501" lon="-9.20536"></trkpt><trkpt lat="39.416" lon="-9.20545"></trkpt><trkpt lat="39.41673" lon="-9.20506"></trkpt><trkpt lat="39.4173" lon="-9.20498"></trkpt><trkpt lat="39.41879" lon="-9.20515"></trkpt><trkpt lat="39.42018" lon="-9.20609"></trkpt><trkpt lat="39.42128" lon="-9.20729"></trkpt><trkpt lat="39.42144" lon="-9.20729"></trkpt><trkpt lat="39.42189" lon="-9.20783"></trkpt><trkpt lat="39.42186" lon="-9.20813"></trkpt><trkpt lat="39.42227" lon="-9.20867"></trkpt><trkpt lat="39.42376" lon="-9.21043"></trkpt><trkpt lat="39.42388" lon="-9.21028"></trkpt><trkpt lat="39.42298" lon="-9.20877"></trkpt><trkpt lat="39.42267" lon="-9.20845"></trkpt><trkpt lat="39.42257" lon="-9.20858"></trkpt><trkpt lat="39.42249" lon="-9.20847"></trkpt><trkpt lat="39.42252" lon="-9.20792"></trkpt><trkpt lat="39.42215" lon="-9.20719"></trkpt><trkpt lat="39.42005" lon="-9.20515"></trkpt><trkpt lat="39.41796" lon="-9.20442"></trkpt><trkpt lat="39.41677" lon="-9.20433"></trkpt><trkpt lat="39.41597" lon="-9.20455"></trkpt><trkpt lat="39.41511" lon="-9.20442"></trkpt><trkpt lat="39.41398" lon="-9.20377"></trkpt><trkpt lat="39.41362" lon="-9.20377"></trkpt><trkpt lat="39.41256" lon="-9.20309"></trkpt><trkpt lat="39.41209" lon="-9.20317"></trkpt><trkpt lat="39.41191" lon="-9.20337"></trkpt><trkpt lat="39.41191" lon="-9.20337"></trkpt></trkseg>
</trk>
<trk>
  <name>Banco de areia 4</name>
  <desc>Fica a seco ou muito raso na baixa-mar. Não lances para aqui — passa por cima.</desc>
  <extensions><osmand:color>#f4d03f</osmand:color><osmand:width>thin</osmand:width></extensions>
  <trkseg><trkpt lat="39.41237" lon="-9.22066"></trkpt><trkpt lat="39.41259" lon="-9.22103"></trkpt><trkpt lat="39.41292" lon="-9.2209"></trkpt><trkpt lat="39.41362" lon="-9.22158"></trkpt><trkpt lat="39.4141" lon="-9.22058"></trkpt><trkpt lat="39.41455" lon="-9.22008"></trkpt><trkpt lat="39.4161" lon="-9.22047"></trkpt><trkpt lat="39.41673" lon="-9.22103"></trkpt><trkpt lat="39.41695" lon="-9.22088"></trkpt><trkpt lat="39.41604" lon="-9.21983"></trkpt><trkpt lat="39.41504" lon="-9.21918"></trkpt><trkpt lat="39.41445" lon="-9.21841"></trkpt><trkpt lat="39.41378" lon="-9.21824"></trkpt><trkpt lat="39.41342" lon="-9.21858"></trkpt><trkpt lat="39.41299" lon="-9.21867"></trkpt><trkpt lat="39.41264" lon="-9.21925"></trkpt><trkpt lat="39.41271" lon="-9.21942"></trkpt><trkpt lat="39.41257" lon="-9.21968"></trkpt><trkpt lat="39.41261" lon="-9.22002"></trkpt><trkpt lat="39.41279" lon="-9.22025"></trkpt><trkpt lat="39.41322" lon="-9.22004"></trkpt><trkpt lat="39.41353" lon="-9.22032"></trkpt><trkpt lat="39.41339" lon="-9.22051"></trkpt><trkpt lat="39.41282" lon="-9.22043"></trkpt><trkpt lat="39.41262" lon="-9.2206"></trkpt><trkpt lat="39.41252" lon="-9.22047"></trkpt><trkpt lat="39.41237" lon="-9.22066"></trkpt><trkpt lat="39.41237" lon="-9.22066"></trkpt></trkseg>
</trk>
<trk>
  <name>Banco de areia 5</name>
  <desc>Fica a seco ou muito raso na baixa-mar. Não lances para aqui — passa por cima.</desc>
  <extensions><osmand:color>#f4d03f</osmand:color><osmand:width>thin</osmand:width></extensions>
  <trkseg><trkpt lat="39.42113" lon="-9.21028"></trkpt><trkpt lat="39.42154" lon="-9.21103"></trkpt><trkpt lat="39.42161" lon="-9.21094"></trkpt><trkpt lat="39.42217" lon="-9.21133"></trkpt><trkpt lat="39.42244" lon="-9.21176"></trkpt><trkpt lat="39.42273" lon="-9.21176"></trkpt><trkpt lat="39.42269" lon="-9.21186"></trkpt><trkpt lat="39.4233" lon="-9.21257"></trkpt><trkpt lat="39.42361" lon="-9.21221"></trkpt><trkpt lat="39.42338" lon="-9.21182"></trkpt><trkpt lat="39.42361" lon="-9.21169"></trkpt><trkpt lat="39.42371" lon="-9.21113"></trkpt><trkpt lat="39.4234" lon="-9.21064"></trkpt><trkpt lat="39.42317" lon="-9.21056"></trkpt><trkpt lat="39.42293" lon="-9.21116"></trkpt><trkpt lat="39.42244" lon="-9.21073"></trkpt><trkpt lat="39.42214" lon="-9.21098"></trkpt><trkpt lat="39.42196" lon="-9.21053"></trkpt><trkpt lat="39.42181" lon="-9.21034"></trkpt><trkpt lat="39.42164" lon="-9.21047"></trkpt><trkpt lat="39.42138" lon="-9.20995"></trkpt><trkpt lat="39.42113" lon="-9.21028"></trkpt><trkpt lat="39.42113" lon="-9.21028"></trkpt></trkseg>
</trk>
<trk>
  <name>Banco de areia 6</name>
  <desc>Fica a seco ou muito raso na baixa-mar. Não lances para aqui — passa por cima.</desc>
  <extensions><osmand:color>#f4d03f</osmand:color><osmand:width>thin</osmand:width></extensions>
  <trkseg><trkpt lat="39.39858" lon="-9.2029"></trkpt><trkpt lat="39.39881" lon="-9.2038"></trkpt><trkpt lat="39.39923" lon="-9.20416"></trkpt><trkpt lat="39.39959" lon="-9.20403"></trkpt><trkpt lat="39.40052" lon="-9.20416"></trkpt><trkpt lat="39.40122" lon="-9.20446"></trkpt><trkpt lat="39.40161" lon="-9.20506"></trkpt><trkpt lat="39.4021" lon="-9.20465"></trkpt><trkpt lat="39.40168" lon="-9.20395"></trkpt><trkpt lat="39.40065" lon="-9.20317"></trkpt><trkpt lat="39.4007" lon="-9.2029"></trkpt><trkpt lat="39.40055" lon="-9.2027"></trkpt><trkpt lat="39.40039" lon="-9.20305"></trkpt><trkpt lat="39.40006" lon="-9.203"></trkpt><trkpt lat="39.40011" lon="-9.20259"></trkpt><trkpt lat="39.39979" lon="-9.20223"></trkpt><trkpt lat="39.39953" lon="-9.20232"></trkpt><trkpt lat="39.39916" lon="-9.20202"></trkpt><trkpt lat="39.39899" lon="-9.20244"></trkpt><trkpt lat="39.39883" lon="-9.20219"></trkpt><trkpt lat="39.39858" lon="-9.2029"></trkpt><trkpt lat="39.39858" lon="-9.2029"></trkpt></trkseg>
</trk>
<trk>
  <name>Banco de areia 7</name>
  <desc>Fica a seco ou muito raso na baixa-mar. Não lances para aqui — passa por cima.</desc>
  <extensions><osmand:color>#f4d03f</osmand:color><osmand:width>thin</osmand:width></extensions>
  <trkseg><trkpt lat="39.42448" lon="-9.21483"></trkpt><trkpt lat="39.42448" lon="-9.21547"></trkpt><trkpt lat="39.42471" lon="-9.21581"></trkpt><trkpt lat="39.42471" lon="-9.21616"></trkpt><trkpt lat="39.42527" lon="-9.21714"></trkpt><trkpt lat="39.4257" lon="-9.21753"></trkpt><trkpt lat="39.4256" lon="-9.21787"></trkpt><trkpt lat="39.4258" lon="-9.21847"></trkpt><trkpt lat="39.42595" lon="-9.21867"></trkpt><trkpt lat="39.42648" lon="-9.21871"></trkpt><trkpt lat="39.4267" lon="-9.2183"></trkpt><trkpt lat="39.42633" lon="-9.21753"></trkpt><trkpt lat="39.42633" lon="-9.21714"></trkpt><trkpt lat="39.42511" lon="-9.2156"></trkpt><trkpt lat="39.42462" lon="-9.21463"></trkpt><trkpt lat="39.42448" lon="-9.21483"></trkpt><trkpt lat="39.42448" lon="-9.21483"></trkpt></trkseg>
</trk>
<trk>
  <name>Banco de areia 8</name>
  <desc>Fica a seco ou muito raso na baixa-mar. Não lances para aqui — passa por cima.</desc>
  <extensions><osmand:color>#f4d03f</osmand:color><osmand:width>thin</osmand:width></extensions>
  <trkseg><trkpt lat="39.40007" lon="-9.1868"></trkpt><trkpt lat="39.40024" lon="-9.18732"></trkpt><trkpt lat="39.40072" lon="-9.18802"></trkpt><trkpt lat="39.40145" lon="-9.18863"></trkpt><trkpt lat="39.40163" lon="-9.18848"></trkpt><trkpt lat="39.4017" lon="-9.18818"></trkpt><trkpt lat="39.4016" lon="-9.18805"></trkpt><trkpt lat="39.4017" lon="-9.18792"></trkpt><trkpt lat="39.40156" lon="-9.18762"></trkpt><trkpt lat="39.40186" lon="-9.18727"></trkpt><trkpt lat="39.40175" lon="-9.18695"></trkpt><trkpt lat="39.40115" lon="-9.18678"></trkpt><trkpt lat="39.40079" lon="-9.18618"></trkpt><trkpt lat="39.40042" lon="-9.18635"></trkpt><trkpt lat="39.40007" lon="-9.1868"></trkpt><trkpt lat="39.40007" lon="-9.1868"></trkpt></trkseg>
</trk>
</gpx>
